KUIPER-00053            
1 64513U 25134P   25306.05260169  .00003785  00000+0  52689-3 0  9994
2 64513  51.9003  67.2356 0002025 248.5980 111.4766 14.79796248 21313
KUIPER-00054            
1 64514U 25134Q   25306.50002315 -.00042136  00000+0 -49902-2 0  9990
2 64514  51.8976  60.5909 0003500 253.9396 136.7111 14.84212052  4588
KUIPER-00055            
1 64515U 25134R   25306.50002315 -.00040378  00000+0 -20918-2 0  9993
2 64515  51.8921  57.0444 0001097 332.0642 117.8971 15.15655487  4713
KUIPER-00056            
1 64516U 25134S   25306.07557262  .00004998  00000+0  68466-3 0  9999
2 64516  51.9024  68.4152 0001894 207.4851 152.6012 14.79904126 21306
KUIPER-00057            
1 64517U 25134T   25306.06721551  .00004037  00000+0  55747-3 0  9995
2 64517  51.8998  75.9508 0008938 213.8957 146.1435 14.79986382 21196
KUIPER-00058            
1 64518U 25134U   25306.07442190 -.00008559  00000+0 -10949-2 0  9995
2 64518  51.9017  69.8362 0004378 242.3706 117.6812 14.79932147 21285
KUIPER-00059            
1 64519U 25134V   25306.50002315 -.00038162  00000+0 -50120-2 0  9993
2 64519  51.8982  62.9917 0005000  50.2617  40.4462 14.79865529  4875
KUIPER-00060            
1 64520U 25134W   25306.07822918  .00005086  00000+0  69555-3 0  9996
2 64520  51.9009  65.9096 0001149 308.6714  51.4146 14.79940657 21323
